[{"OBJECT_NAME":"STARLINK-32600","OBJECT_ID":"2024-225R","EPOCH":"2026-03-09T15:11:36.351168","MEAN_MOTION":14.98350761,"ECCENTRICITY":0.0003012,"INCLINATION":70.0026,"RA_OF_ASC_NODE":154.7094,"ARG_OF_PERICENTER":264.8696,"MEAN_ANOMALY":95.2119,"EPHEMERIS_TYPE":0,"CLASSIFICATION_TYPE":"U","NORAD_CAT_ID":62178,"ELEMENT_SET_NO":999,"REV_AT_EPOCH":7011,"BSTAR":0.00086211,"MEAN_MOTION_DOT":0.00010214,"MEAN_MOTION_DDOT":0},{"OBJECT_NAME":"ATLAS 28E DEB","OBJECT_ID":"1990-031E","EPOCH":"2026-03-09T22:13:15.208608","MEAN_MOTION":14.88062431,"ECCENTRICITY":0.00498313,"INCLINATION":89.8423,"RA_OF_ASC_NODE":265.8289,"ARG_OF_PERICENTER":258.935,"MEAN_ANOMALY":100.6272,"EPHEMERIS_TYPE":0,"CLASSIFICATION_TYPE":"U","NORAD_CAT_ID":20564,"ELEMENT_SET_NO":999,"REV_AT_EPOCH":35731,"BSTAR":0.00023704845,"MEAN_MOTION_DOT":2.245e-5,"MEAN_MOTION_DDOT":0}]
